path,name,usgovmanual_addresses_0_email,usgovmanual_addresses_0_fax,usgovmanual_addresses_0_phone,usgovmanual_addresses_0_phone2,usgovmanual_addresses_0_url,usgovmanual_addresses_1_email,usgovmanual_addresses_1_fax,usgovmanual_addresses_1_phone,usgovmanual_addresses_1_url,usgovmanual_addresses_2_email,usgovmanual_addresses_2_phone,usgovmanual_category,usgovmanual_id,usgovmanual_mission_statement_records_0_text,usgovmanual_mission_statement_records_1_note,usgovmanual_mission_statement_records_1_text,usgovmanual_name,usgovmanual_organization_chart
/US FEDERAL GOVERNMENT,US FEDERAL GOVERNMENT,,,,,,,,,,,,,,,,,US FEDERAL GOVERNMENT,
/US FEDERAL GOVERNMENT/[usgovmanual] Congress (70),[usgovmanual] Congress (70),,,,,http://www.congress.gov,,,,,,,Legislative Branch,70,"The Congress of the United States was created by Article I, section 1, of the Constitution, adopted by the Constitutional Convention on September 17, 1787, providing that “All legislative Powers herein granted shall be vested in a Congress of the United States, which shall consist of a Senate and House of Representatives.""","New York ratified the Constitution on July 26, 1788, but did not elect its Senators until July 15 and 16, 1789. North Carolina did not ratify the Constitution until November 21, 1789; Rhode Island ratified it on May 29, 1790.","The first Congress under the Constitution met on March 4, 1789, in the Federal Hall in New York City. The membership then consisted of 20 Senators and 59 Representatives.*",Congress,
/US FEDERAL GOVERNMENT/[usgovmanual] Architect of the Capitol (73),[usgovmanual] Architect of the Capitol (73),,,202-228-1793,,http://www.aoc.gov,,,,,,,Legislative Branch,73,The Architect of the Capitol maintains the U.S. Capitol and the buildings and grounds of the Capitol campus.,,,Architect of the Capitol,
/US FEDERAL GOVERNMENT/[usgovmanual] Congressional Budget Office (79),[usgovmanual] Congressional Budget Office (79),,,202-226-2600,,http://www.cbo.gov,,,,,,,Legislative Branch,79,The Congressional Budget Office independently analyzes budgetary and economic issues to support the congressional budget process.,,,Congressional Budget Office,
/US FEDERAL GOVERNMENT/[usgovmanual] Government Accountability Office (75),[usgovmanual] Government Accountability Office (75),,,202-512-3000,,http://www.gao.gov,,,,,,,Legislative Branch,75,The Government Accountability Office helps the Congress fulfill its constitutional responsibilities and heightens the Federal Government's accountability and performance.,,,Government Accountability Office,
/US FEDERAL GOVERNMENT/[usgovmanual] Government Publishing Office (76),[usgovmanual] Government Publishing Office (76),,,202-512-1800,,http://www.gpo.gov,,,,,,,Legislative Branch,76,"The Government Publishing Office produces, procures, and disseminates printed and electronic publications of the Congress, executive departments, and Federal agencies and establishments",,,Government Publishing Office,
/US FEDERAL GOVERNMENT/[usgovmanual] Library of Congress (77),[usgovmanual] Library of Congress (77),,,202-707-5000,,http://www.loc.gov,,,,,,,Legislative Branch,77,"The Library of Congress is the national library of the United States, offering diverse materials for research, including the world's most extensive collections in areas such as American history, music, and law.",,,Library of Congress,https://govmanual.gpo.gov/ReadLibraryItem.ashx?SFN=9xYQyKKQzzx3u52vPn+DGg==&SF=PAmu4nDRyaoCugTKvsXyXx/6G6ZqqOY1fk7ZHZboqk4=
/US FEDERAL GOVERNMENT/[usgovmanual] United States Botanic Garden (74),[usgovmanual] United States Botanic Garden (74),usbg@aoc.gov,,202-226-8333,,http://www.usbg.gov,,,202-226-4780,,,,Legislative Branch,74,"The United States Botanic Garden demonstrates the essential contribution that plants make aesthetically, culturally, ecologically, economically, and therapeutically, to the well-being of humankind, and it supports partnerships, nationally and internationally, by fostering exchanges of information and ideas.",,,United States Botanic Garden,
/US FEDERAL GOVERNMENT/[usgovmanual] The Supreme Court of the United States (80),[usgovmanual] The Supreme Court of the United States (80),,,202-479-3000,,http://www.supremecourt.gov,,,,,,,Judicial Branch,80,"Article III, section 1, of the Constitution of the United States provides that ""[t]he judicial Power of the United States, shall be vested in one supreme Court, and in such inferior Courts as the Congress may from time to time ordain and establish.""",,,The Supreme Court of the United States,
/US FEDERAL GOVERNMENT/[usgovmanual] Lower Courts (81),[usgovmanual] Lower Courts (81),,,,,,,,,,,,Judicial Branch,81,,,,Lower Courts,
/US FEDERAL GOVERNMENT/[usgovmanual] Special Courts (88),[usgovmanual] Special Courts (88),,,,,,,,,,,,Judicial Branch,88,,,,Special Courts,
/US FEDERAL GOVERNMENT/[usgovmanual] Administrative Office of the United States Courts (93),[usgovmanual] Administrative Office of the United States Courts (93),,,202-502-2600,,http://www.uscourts.gov,,,,,,,Judicial Branch,93,"The Administrative Office of the United States Courts supports and serves the nonjudicial, administrative business of the United States Courts.",,,Administrative Office of the United States Courts,
/US FEDERAL GOVERNMENT/[usgovmanual] Federal Judicial Center (94),[usgovmanual] Federal Judicial Center (94),,,202-502-4000,,http://www.fjc.gov,,,,,,,Judicial Branch,94,The Federal Judicial Center is the judicial branch's agency for policy research and continuing education.,,,Federal Judicial Center,
/US FEDERAL GOVERNMENT/[usgovmanual] United States Sentencing Commission (95),[usgovmanual] United States Sentencing Commission (95),,,202-502-4500,,http://www.ussc.gov,,,,,,,Judicial Branch,95,The United States Sentencing Commission develops sentencing guidelines and policies for the Federal court system.,,,United States Sentencing Commission,https://govmanual.gpo.gov/ReadLibraryItem.ashx?SFN=UeeDO8j6e0f3YkfXddDmZNvArAB3FnlF&SF=PAmu4nDRyaoCugTKvsXyXx/6G6ZqqOY1fk7ZHZboqk4=
/US FEDERAL GOVERNMENT/[usgovmanual] The President (96),[usgovmanual] The President (96),,,,,,,,,,,,Executive Branch: The President,96,,,,The President,
/US FEDERAL GOVERNMENT/[usgovmanual] The Vice President (97),[usgovmanual] The Vice President (97),,,,,,,,,,,,Executive Branch: The President,97,,,,The Vice President,
/US FEDERAL GOVERNMENT/[usgovmanual] The Executive Office of the President (98),[usgovmanual] The Executive Office of the President (98),,,,,http://www.whitehouse.gov,,,,,,,Executive Branch: The President,98,,,,The Executive Office of the President,
/US FEDERAL GOVERNMENT/[usgovmanual] Department of Agriculture (322),[usgovmanual] Department of Agriculture (322),,,202-720-2791,,http://www.usda.gov,,,,,,,Executive Branch: Departments,322,"The Department of Agriculture develops agricultural markets, fights hunger and malnutrition, conserves natural resources, and ensures food quality standards.",,,Department of Agriculture,
/US FEDERAL GOVERNMENT/[usgovmanual] Department of Commerce (113),[usgovmanual] Department of Commerce (113),,,202-482-2000,,http://www.doc.gov,,,,,,,Executive Branch: Departments,113,"The Department of Commerce promotes the Nation's domestic and international trade, economic growth, and technological advancement by fostering free enterprise worldwide, supporting fair trade, compiling social and economic statistics, protecting Earth's physical resources, granting patents and registering trademarks, and assisting small and minority-owned businesses.",,,Department of Commerce,
/US FEDERAL GOVERNMENT/[usgovmanual] Department of Defense (114),[usgovmanual] Department of Defense (114),,,703-545-6700,,http://www.defense.gov,,,,,,,Executive Branch: Departments,114,"The Department of Defense provides the military forces needed to deter war and protect national security. Under the President, the Secretary of Defense directs and exercises authority and control over the separately organized Departments of the Air Force, the Army, and the Navy; over the Joint Chiefs of Staff; over the combatant commands; and over defense agencies and field activities.",,,Department of Defense,https://govmanual.gpo.gov/ReadLibraryItem.ashx?SFN=MFGokbhL0zHYvSS27Jckr4hUJH1AH3dF&SF=PAmu4nDRyaoCugTKvsXyXx/6G6ZqqOY1fk7ZHZboqk4=
/US FEDERAL GOVERNMENT/[usgovmanual] Department of Education (115),[usgovmanual] Department of Education (115),,,202-401-2000,"TTY, 800-437-0833",http://www.ed.gov,,,,,,,Executive Branch: Departments,115,"The Department of Education ensures equal access to education; promotes educational excellence; and administers, coordinates, and makes policy for most Federal assistance to education with the aim of raising levels of student achievement and readiness for the global future.",,,Department of Education,https://govmanual.gpo.gov/ReadLibraryItem.ashx?SFN=UeeDO8j6e0c+Ai1j6CkL9YQ/sx+HS5Kw&SF=PAmu4nDRyaoCugTKvsXyXx/6G6ZqqOY1fk7ZHZboqk4=
/US FEDERAL GOVERNMENT/[usgovmanual] Department of Energy (116),[usgovmanual] Department of Energy (116),,,202-586-5000,,http://www.energy.gov,,,,,,,Executive Branch: Departments,116,"The Department of Energy addresses the Nation's energy, environmental, and nuclear challenges, using transformative science and technology to ensure national security and prosperity.",,,Department of Energy,
/US FEDERAL GOVERNMENT/[usgovmanual] Department of Health and Human Services (117),[usgovmanual] Department of Health and Human Services (117),,,202-690-6343,,http://www.hhs.gov,,,,,,,Executive Branch: Departments,117,"The Department of Health and Human Services strengthens the public health and welfare of the American people by making affordable and quality health care and childcare accessible, ensuring the safety of food products, preparing for public health emergencies, and advancing the diagnosis, treatment, and curing of life-threatening illnesses.",,,Department of Health and Human Services,
/US FEDERAL GOVERNMENT/[usgovmanual] Department of Homeland Security (118),[usgovmanual] Department of Homeland Security (118),,,202-282-8000,,http://www.dhs.gov,,,,,,,Executive Branch: Departments,118,"The Department of Homeland Security prevents terrorism and enhances security, manages the Nation’s borders, administers immigration laws, safeguards cyberspace, and ensures resilience in the wake of disaster.",,,Department of Homeland Security,
/US FEDERAL GOVERNMENT/[usgovmanual] Department of Housing and Urban Development (119),[usgovmanual] Department of Housing and Urban Development (119),,,202-708-1422,,http://www.hud.gov,,,,,,,Executive Branch: Departments,119,"The Department of Housing and Urban Development oversees housing needs nationwide, ensures fair housing opportunities, and creates strong, sustainable, and inclusive communities.",,,Department of Housing and Urban Development,
/US FEDERAL GOVERNMENT/[usgovmanual] Department of Justice (121),[usgovmanual] Department of Justice (121),,,202-514-2000,,http://www.justice.gov,,,,,,,Executive Branch: Departments,121,The Department of Justice enforces the law and defends national interests according to the law; ensures public safety against domestic and foreign threats; provides Federal leadership in preventing and controlling crime; seeks just punishment for those who have behaved unlawfully; and ensures fair and impartial administration of justice for all American citizens.,,,Department of Justice,
/US FEDERAL GOVERNMENT/[usgovmanual] Department of Labor (323),[usgovmanual] Department of Labor (323),,,202-693-6000,,http://www.dol.gov,,,,,,,Executive Branch: Departments,323,"The Department of Labor promotes the welfare of job seekers, wage earners, and retirees by improving working conditions, advancing opportunities for profitable employment, protecting retirement and health care benefits, matching workers to employers, strengthening free collective bargaining, and tracking changes in economic indicators on a national scale.",,,Department of Labor,
/US FEDERAL GOVERNMENT/[usgovmanual] Department of State (123),[usgovmanual] Department of State (123),,,202-647-4000,,http://www.state.gov,,,,,,,Executive Branch: Departments,123,"The Department of State advises the President on issues of foreign policy; supports democracy, freedom, and prosperity for all people; and fosters conditions that favor stability and progress worldwide.",,,Department of State,
/US FEDERAL GOVERNMENT/[usgovmanual] Department of Transportation (124),[usgovmanual] Department of Transportation (124),,,202-366-4000,,http://www.dot.gov,,,,,,,Executive Branch: Departments,124,"The Department of Transportation establishes national transportation policy for highway planning and construction, motor carrier safety, urban mass transit, railroads, aviation, and the safety of waterways, ports, highways, and pipelines.",,,Department of Transportation,
/US FEDERAL GOVERNMENT/[usgovmanual] Department of Veterans Affairs (126),[usgovmanual] Department of Veterans Affairs (126),,,202-461-4800,,http://www.va.gov,,,,,,,Executive Branch: Departments,126,"The Department of Veterans Affairs operates programs benefiting Veterans and members of their families: It offers education opportunities and rehabilitation services and provides compensation payments for disabilities or death related to military service, home loan guaranties, pensions, burials, and health care that includes the services in clinics, medical centers, community living centers (which replace nursing home)s, and home- and community-based settings.",,,Department of Veterans Affairs,
/US FEDERAL GOVERNMENT/[usgovmanual] Department of the Interior (120),[usgovmanual] Department of the Interior (120),,,202-208-3100,,http://www.doi.gov,,,,,,,Executive Branch: Departments,120,"The Department of the Interior protects America's heritage and natural resources, honors its cultures and tribal communities, and supplies energy for powering its future.",,,Department of the Interior,
/US FEDERAL GOVERNMENT/[usgovmanual] Department of the Treasury (125),[usgovmanual] Department of the Treasury (125),,,202-622-2000,,http://www.treasury.gov,,,,,,,Executive Branch: Departments,125,"The Department of the Treasury enforces financial laws, manufactures coins and currency, and recommends economic, fiscal, and tax policies.",,,Department of the Treasury,
/US FEDERAL GOVERNMENT/[usgovmanual] Administrative Conference of the United States (127),[usgovmanual] Administrative Conference of the United States (127),info@acus.gov,202-386-7190,202-480-2080,,http://www.acus.gov,,,,,,,Executive Branch: Independent Agencies and Government Corporations,127,"The Administrative Conference of the United States develops recommendations for improving the fairness and effectiveness of procedures by which Federal agencies administer regulatory, benefit, and other Government programs.",,,Administrative Conference of the United States,
/US FEDERAL GOVERNMENT/[usgovmanual] Central Intelligence Agency (130),[usgovmanual] Central Intelligence Agency (130),,,703-482-0623,,http://www.cia.gov,,,,,,,Executive Branch: Independent Agencies and Government Corporations,130,"The Central Intelligence Agency collects, evaluates, and disseminates vital information on economic, military, political, scientific, and other developments abroad to safeguard national security.",,,Central Intelligence Agency,
/US FEDERAL GOVERNMENT/[usgovmanual] Commodity Futures Trading Commission (131),[usgovmanual] Commodity Futures Trading Commission (131),,202-418-5521,202-418-5000,202-418-5514 (TTY),http://www.cftc.gov/index.htm,,,,,,,Executive Branch: Independent Agencies and Government Corporations,131,"The Commodity Futures Trading Commission avoids systemic risk; fosters open, transparent, competitive, and financially sound markets; and protects the market users and their funds, consumers, and the public from fraud, manipulation, and abusive practices related to derivatives and other products that are subject to the Commodity Exchange Act.",,,Commodity Futures Trading Commission,
/US FEDERAL GOVERNMENT/[usgovmanual] Consumer Product Safety Commission (132),[usgovmanual] Consumer Product Safety Commission (132),,,301-504-7923,,http://www.cpsc.gov,,,,,,,Executive Branch: Independent Agencies and Government Corporations,132,The Consumer Product Safety Commission protects the public by reducing the risk of injury and death from consumer products.,,,Consumer Product Safety Commission,
/US FEDERAL GOVERNMENT/[usgovmanual] Consumer Financial Protection Bureau (321),[usgovmanual] Consumer Financial Protection Bureau (321),,,202-435-7000,,http://www.consumerfinance.gov,,,,,,,Executive Branch: Independent Agencies and Government Corporations,321,"The Consumer Financial Protection Bureau (CFPB) helps consumer finance markets work by making rules more effective, by consistently and fairly enforcing those rules, and by empowering consumers to take more control over their economic lives.",,,Consumer Financial Protection Bureau,
/US FEDERAL GOVERNMENT/[usgovmanual] Corporation for National and Community Service (133),[usgovmanual] Corporation for National and Community Service (133),,,202-606-5000,,http://www.nationalservice.gov,,,,,,,Executive Branch: Independent Agencies and Government Corporations,133,"The Corporation for National and Community Service improves lives, strengthens communities, and fosters civic engagement through service and volunteering.",,,Corporation for National and Community Service,https://govmanual.gpo.gov/ReadLibraryItem.ashx?SFN=y077IoFAxQNZbTBZKJuluQ==&SF=PAmu4nDRyaoCugTKvsXyXx/6G6ZqqOY1fk7ZHZboqk4=
/US FEDERAL GOVERNMENT/[usgovmanual] Environmental Protection Agency (135),[usgovmanual] Environmental Protection Agency (135),,,202-272-0167,,http://www.epa.gov,,,,,,,Executive Branch: Independent Agencies and Government Corporations,135,The Environmental Protection Agency protects human health and safeguards the environment.,,,Environmental Protection Agency,
/US FEDERAL GOVERNMENT/[usgovmanual] Defense Nuclear Facilities Safety Board (134),[usgovmanual] Defense Nuclear Facilities Safety Board (134),,202-208-6518,202-694-7000,,http://www.dnfsb.gov,,,,,,,Executive Branch: Independent Agencies and Government Corporations,134,"The Defense Nuclear Facilities Safety Board identifies the nature and consequences of public health and safety threats at the Department of Energy's defense nuclear facilities, elevates awareness of and information on such threats to the highest levels of governmental authority, and keeps the public informed.",,,Defense Nuclear Facilities Safety Board,https://govmanual.gpo.gov/ReadLibraryItem.ashx?SFN=At4EOm/9ZOe90DnlyDX00rObAXOcoiXa&SF=PAmu4nDRyaoCugTKvsXyXx/6G6ZqqOY1fk7ZHZboqk4=
/US FEDERAL GOVERNMENT/[usgovmanual] Equal Employment Opportunity Commission (136),[usgovmanual] Equal Employment Opportunity Commission (136),,,202-663-4900,"TTY, 202-663-4444",http://www.eeoc.gov,,,,,,,Executive Branch: Independent Agencies and Government Corporations,136,"The Equal Employment Opportunity Commission enforces laws that prohibit employment discrimination based on age, color, disability, gender, genetic information, national origin, race, or religion.",,,Equal Employment Opportunity Commission,
/US FEDERAL GOVERNMENT/[usgovmanual] Export-Import Bank of the United States (137),[usgovmanual] Export-Import Bank of the United States (137),,,202-565-3946,800-565-3946,http://www.exim.gov,,,,,,,Executive Branch: Independent Agencies and Government Corporations,137,The Export-Import Bank helps finance the export of U.S. goods and services to international markets.,,,Export-Import Bank of the United States,
/US FEDERAL GOVERNMENT/[usgovmanual] Farm Credit Administration (138),[usgovmanual] Farm Credit Administration (138),,703-790-3260,703-883-4000,,http://www.fca.gov,,,,,,,Executive Branch: Independent Agencies and Government Corporations,138,"The Farm Credit Administration ensures the safe and sound operation of the banks, associations, affiliated service organizations, and other entities of the Farm Credit System, and protects the interests of the public and those who borrow from Farm Credit institutions or invest in Farm Credit securities.",,,Farm Credit Administration,
/US FEDERAL GOVERNMENT/[usgovmanual] Federal Communications Commission (139),[usgovmanual] Federal Communications Commission (139),,,888-225-5322,"TTY, 888-835-5322",http://www.fcc.gov,,,,,,,Executive Branch: Independent Agencies and Government Corporations,139,"The Federal Communications Commission regulates interstate and foreign communications by radio, television, wire, satellite, and cable.",,,Federal Communications Commission,
/US FEDERAL GOVERNMENT/[usgovmanual] Federal Deposit Insurance Corporation (140),[usgovmanual] Federal Deposit Insurance Corporation (140),,,703-562-2222,,http://www.fdic.gov,,,,,,,Executive Branch: Independent Agencies and Government Corporations,140,"The Federal Deposit Insurance Corporation preserves and promotes public confidence in U.S. financial institutions by insuring bank and thrift deposits, examining State-chartered banks, and liquidating assets of failed institutions.",,,Federal Deposit Insurance Corporation,
/US FEDERAL GOVERNMENT/[usgovmanual] Federal Election Commission (141),[usgovmanual] Federal Election Commission (141),,,202-694-1100,800-424-9530,http://www.fec.gov,,,,,,,Executive Branch: Independent Agencies and Government Corporations,141,The Federal Election Commission provides public disclosure of campaign finance activities and ensures compliance with campaign finance laws and regulations.,,,Federal Election Commission,https://govmanual.gpo.gov/ReadLibraryItem.ashx?SFN=JADaez/w7l7ulLcekP4Z7Q==&SF=PAmu4nDRyaoCugTKvsXyXx/6G6ZqqOY1fk7ZHZboqk4=
/US FEDERAL GOVERNMENT/[usgovmanual] Federal Labor Relations Authority (143),[usgovmanual] Federal Labor Relations Authority (143),,,202-218-7770,,http://www.flra.gov,,,,,,,Executive Branch: Independent Agencies and Government Corporations,143,The Federal Labor Relations Authority oversees labor-management relations between the Federal Government and its employees.,,,Federal Labor Relations Authority,
/US FEDERAL GOVERNMENT/[usgovmanual] Federal Housing Finance Agency (142),[usgovmanual] Federal Housing Finance Agency (142),,,202-649-3800,,http://www.fhfa.gov,,,,,,,Executive Branch: Independent Agencies and Government Corporations,142,The Federal Housing and Finance Agency ensures that the housing Government-Sponsored Enterprises operate safely and soundly and serve as a reliable source of liquidity and funding for housing finance and community investment.,,,Federal Housing Finance Agency,https://govmanual.gpo.gov/ReadLibraryItem.ashx?SFN=e2PEWcM8fPYnsiTAhaXdag==&SF=PAmu4nDRyaoCugTKvsXyXx/6G6ZqqOY1fk7ZHZboqk4=
/US FEDERAL GOVERNMENT/[usgovmanual] Federal Maritime Commission (144),[usgovmanual] Federal Maritime Commission (144),,,202-523-5707,,http://www.fmc.gov,,,,,,,Executive Branch: Independent Agencies and Government Corporations,144,"The Federal Maritime Commission promotes an efficient, fair, and reliable supply system of international ocean transportation; protects the public from deceptive, unfair, and unlawful practices; and contributes to the integrity and security of the Nation's supply chain and transportation system.",,,Federal Maritime Commission,
/US FEDERAL GOVERNMENT/[usgovmanual] Federal Mine Safety and Health Review Commission (146),[usgovmanual] Federal Mine Safety and Health Review Commission (146),fmshrc@fmshrc.gov,,202-434-9900,"TTY/TDD, 202-434-4000, ext. 293",http://www.fmshrc.gov,,,,,,,Executive Branch: Independent Agencies and Government Corporations,146,"The Federal Mine Safety and Health Review Commission ensures compliance with occupational safety and health standards in the Nation's surface and underground coal, metal, and nonmetal mines.",,,Federal Mine Safety and Health Review Commission,
/US FEDERAL GOVERNMENT/[usgovmanual] Federal Mediation and Conciliation Service (145),[usgovmanual] Federal Mediation and Conciliation Service (145),,,202-606-8100,,http://www.fmcs.gov,,,,,,,Executive Branch: Independent Agencies and Government Corporations,145,"The Federal Mediation and Conciliation Service helps labor and management resolve disputes in industries affecting commerce, offers training in cooperative processes to promote workplace stability and economic growth, and provides alternative dispute resolution services, training, negotiated rulemaking, and public policy facilitation to government entities.",,,Federal Mediation and Conciliation Service,
/US FEDERAL GOVERNMENT/[usgovmanual] Federal Reserve System (147),[usgovmanual] Federal Reserve System (147),,,202-452-3000,,http://www.federalreserve.gov,,,,,,,Executive Branch: Independent Agencies and Government Corporations,147,"The Federal Reserve System keeps the Nation's monetary and financial system flexible, safe, and stable.",,,Federal Reserve System,
/US FEDERAL GOVERNMENT/[usgovmanual] Federal Retirement Thrift Investment Board (148),[usgovmanual] Federal Retirement Thrift Investment Board (148),,202-942-1676,202-942-1600,,http://www.frtib.gov,,,,,,,Executive Branch: Independent Agencies and Government Corporations,148,The Federal Retirement Thrift Investment Board administers the Thrift Savings Plan in the interest of its participants and beneficiaries.,,,Federal Retirement Thrift Investment Board,
/US FEDERAL GOVERNMENT/[usgovmanual] Federal Trade Commission (149),[usgovmanual] Federal Trade Commission (149),,,202-326-2222,,http://www.ftc.gov,,,,,,,Executive Branch: Independent Agencies and Government Corporations,149,"The Federal Trade Commission protects America's consumers and enforces laws prohibiting anticompetitive, deceptive, or unfair business practices.",,,Federal Trade Commission,
/US FEDERAL GOVERNMENT/[usgovmanual] General Services Administration (150),[usgovmanual] General Services Administration (150),,,,,http://www.gsa.gov,,,,,,,Executive Branch: Independent Agencies and Government Corporations,150,"The General Services Administration delivers value and savings in real estate, acquisition, technology, and other mission-support services across Government.",,,General Services Administration,
/US FEDERAL GOVERNMENT/[usgovmanual] Inter-American Foundation (151),[usgovmanual] Inter-American Foundation (151),,,202-360-4530,,http://www.iaf.gov,,,,,,,Executive Branch: Independent Agencies and Government Corporations,151,The Inter-American Foundation supports social and economic development in Latin America and the Caribbean.,,,Inter-American Foundation,
/US FEDERAL GOVERNMENT/[usgovmanual] National Aeronautics and Space Administration (153),[usgovmanual] National Aeronautics and Space Administration (153),,,202-358-0000,,http://www.nasa.gov,,,,,,,Executive Branch: Independent Agencies and Government Corporations,153,"The National Aeronautics and Space Administration advances aeronautic research, explores space, and makes scientific discoveries for the benefit of humankind.",,,National Aeronautics and Space Administration,
/US FEDERAL GOVERNMENT/[usgovmanual] Merit Systems Protection Board (152),[usgovmanual] Merit Systems Protection Board (152),,202-653-7130,202-653-7200,800-209-8960,http://www.mspb.gov,,,,,,,Executive Branch: Independent Agencies and Government Corporations,152,The Merit Systems Protection Board protects the integrity of the Federal personnel merit systems and the rights of Federal employees.,,,Merit Systems Protection Board,https://govmanual.gpo.gov/ReadLibraryItem.ashx?SFN=UeeDO8j6e0cCYyxW8XdgBi4sgZTtyjaa&SF=PAmu4nDRyaoCugTKvsXyXx/6G6ZqqOY1fk7ZHZboqk4=
/US FEDERAL GOVERNMENT/[usgovmanual] National Archives and Records Administration (154),[usgovmanual] National Archives and Records Administration (154),,,866-272-6272,,http://www.archives.gov,,,,,,,Executive Branch: Independent Agencies and Government Corporations,154,"The National Archives and Records Administration safeguards and preserves the records of the U.S. Government and provides public access to them, ensuring that the American people can discover, learn from, and use their documentary heritage to support democracy.",,,National Archives and Records Administration,
/US FEDERAL GOVERNMENT/[usgovmanual] National Capital Planning Commission (155),[usgovmanual] National Capital Planning Commission (155),,,202-482-7200,,http://www.ncpc.gov,,,,,,,Executive Branch: Independent Agencies and Government Corporations,155,"The National Capital Planning Commission conducts planning and development activities for Federal lands and facilities in the National Capital Region—the District of Columbia, the City of Alexandria, and all land areas within the boundaries of Montgomery, Prince George's, Fairfax, Loudoun, Prince William, and Arlington Counties.",,,National Capital Planning Commission,https://govmanual.gpo.gov/ReadLibraryItem.ashx?SFN=UeeDO8j6e0dtFMMfYbeF6agwRUpUi/tr&SF=PAmu4nDRyaoCugTKvsXyXx/6G6ZqqOY1fk7ZHZboqk4=
/US FEDERAL GOVERNMENT/[usgovmanual] National Credit Union Administration (156),[usgovmanual] National Credit Union Administration (156),,,703-518-6300,,http://www.ncua.gov,,,,,,,Executive Branch: Independent Agencies and Government Corporations,156,The National Credit Union Administration provides a trustworthy credit union system that builds confidence in the Nation's system of cooperative credit.,,,National Credit Union Administration,
/US FEDERAL GOVERNMENT/[usgovmanual] National Foundation on the Arts and the Humanities (157),[usgovmanual] National Foundation on the Arts and the Humanities (157),,,,,,,,,,,,Executive Branch: Independent Agencies and Government Corporations,157,,,,National Foundation on the Arts and the Humanities,
/US FEDERAL GOVERNMENT/[usgovmanual] National Labor Relations Board (158),[usgovmanual] National Labor Relations Board (158),,,202-273-1000,"TDD, 202-273-4300",http://www.nlrb.gov,,,,,,,Executive Branch: Independent Agencies and Government Corporations,158,The National Labor Relations Board remedies unfair labor practices and safeguards employees' rights to organize and to determine whether to have unions as their bargaining representative.,,,National Labor Relations Board,
/US FEDERAL GOVERNMENT/[usgovmanual] National Railroad Passenger Corporation (AMTRAK) (160),[usgovmanual] National Railroad Passenger Corporation (AMTRAK) (160),,,202-906-3000,,http://www.amtrak.com,,,,,,,Executive Branch: Independent Agencies and Government Corporations,160,The National Railroad Passenger Corporation provides intercity rail passenger service in the United States.,,,National Railroad Passenger Corporation (AMTRAK),
/US FEDERAL GOVERNMENT/[usgovmanual] National Mediation Board (159),[usgovmanual] National Mediation Board (159),,,202-692-5000,,http://www.nmb.gov,,,,,,,Executive Branch: Independent Agencies and Government Corporations,159,The National Mediation Board facilitates labor-management relations within the railroad and airline industries.,,,National Mediation Board,https://govmanual.gpo.gov/ReadLibraryItem.ashx?SFN=VfUPe7zJomch1pvVoPQPSQ==&SF=PAmu4nDRyaoCugTKvsXyXx/6G6ZqqOY1fk7ZHZboqk4=
/US FEDERAL GOVERNMENT/[usgovmanual] National Science Foundation (161),[usgovmanual] National Science Foundation (161),info@nsf.gov,,703-292-5111,"TDD, 800-281-8749",http://www.nsf.gov,,,,,,,Executive Branch: Independent Agencies and Government Corporations,161,The National Science Foundation supports research and education to advance science and engineering.,,,National Science Foundation,
/US FEDERAL GOVERNMENT/[usgovmanual] National Transportation Safety Board (162),[usgovmanual] National Transportation Safety Board (162),,,202-314-6000,,http://www.ntsb.gov,,,,,,,Executive Branch: Independent Agencies and Government Corporations,162,"The National Transportation Safety Board investigates accidents, conducts studies, and makes recommendations on safety to Government agencies, the transportation industry, and others.",,,National Transportation Safety Board,
/US FEDERAL GOVERNMENT/[usgovmanual] Nuclear Regulatory Commission (163),[usgovmanual] Nuclear Regulatory Commission (163),opa.resource@nrc.gov,,301-415-7000,,http://www.nrc.gov,,,,,,,Executive Branch: Independent Agencies and Government Corporations,163,The Nuclear Regulatory Commission licenses and regulates civilian use of nuclear energy to protect public health and safety and the environment.,,,Nuclear Regulatory Commission,https://govmanual.gpo.gov/ReadLibraryItem.ashx?SFN=UeeDO8j6e0foAIJwOjaco0y0X05aA+N5&SF=PAmu4nDRyaoCugTKvsXyXx/6G6ZqqOY1fk7ZHZboqk4=
/US FEDERAL GOVERNMENT/[usgovmanual] Occupational Safety and Health Review Commission (164),[usgovmanual] Occupational Safety and Health Review Commission (164),,202-418-3017,202-606-5100,,http://www.oshrc.gov,,,,,,,Executive Branch: Independent Agencies and Government Corporations,164,The Occupational Safety and Health Review Commission ensures the timely and fair resolution of cases involving the alleged exposure of American workers to unsafe or unhealthy working conditions.,,,Occupational Safety and Health Review Commission,
/US FEDERAL GOVERNMENT/[usgovmanual] Office of Government Ethics (166),[usgovmanual] Office of Government Ethics (166),,202-482-9237,202-482-9300,(TTY) 800-877-8339,http://www.oge.gov,,,,,,,Executive Branch: Independent Agencies and Government Corporations,166,The Office of Government Ethics leads and oversees the executive branch program for preventing and resolving conflicts of interest.,,,Office of Government Ethics,
/US FEDERAL GOVERNMENT/[usgovmanual] Office of Personnel Management (167),[usgovmanual] Office of Personnel Management (167),,,202-606-1800,"TTY, 202-606-2532",http://www.opm.gov,,,,,,,Executive Branch: Independent Agencies and Government Corporations,167,"The Office of Personnel Management administers a merit system to ensure compliance with personnel laws and regulations and assists agencies with recruiting, examining, and promoting on the basis of skills and knowledge irrespective of race, religion, sex, political influence, or other factors not based on merit.",,,Office of Personnel Management,
/US FEDERAL GOVERNMENT/[usgovmanual] Office of the Director of National Intelligence (165),[usgovmanual] Office of the Director of National Intelligence (165),,,703-733-8600,,http://www.dni.gov,,,,,,,Executive Branch: Independent Agencies and Government Corporations,165,The Office of the Director of National Intelligence oversees and coordinates the foreign and domestic activities of the Intelligence Community across the Federal Government.,,,Office of the Director of National Intelligence,
/US FEDERAL GOVERNMENT/[usgovmanual] Peace Corps (170),[usgovmanual] Peace Corps (170),,202-692-2231,855-855-1961,202-692-2000,http://www.peacecorps.gov,,,,,,,Executive Branch: Independent Agencies and Government Corporations,170,"The Peace Corps gives the peoples of host countries increased access to volunteers who are qualified, skilled, and trained, and it strengthens mutual understanding between Americans and the peoples of the countries served.",,,Peace Corps,
/US FEDERAL GOVERNMENT/[usgovmanual] Overseas Private Investment Corporation (169),[usgovmanual] Overseas Private Investment Corporation (169),,202-336-7949,202-336-8400,,http://www.opic.gov,,,,,,,Executive Branch: Independent Agencies and Government Corporations,169,The Overseas Private Investment Corporation promotes economic growth and job opportunities both at home and abroad by encouraging U.S. private investment in developing countries and emerging markets.,,,Overseas Private Investment Corporation,
/US FEDERAL GOVERNMENT/[usgovmanual] Pension Benefit Guaranty Corporation (171),[usgovmanual] Pension Benefit Guaranty Corporation (171),,,202-326-4000,800-400-7242,http://www.pbgc.gov,,,,,,,Executive Branch: Independent Agencies and Government Corporations,171,The Pension Benefit Guaranty Corporation protects the retirement incomes of American workers in private-sector defined benefit pension plans.,,,Pension Benefit Guaranty Corporation,https://govmanual.gpo.gov/ReadLibraryItem.ashx?SFN=UeeDO8j6e0dG7ahKrxI9AcDdGsxglZVj&SF=PAmu4nDRyaoCugTKvsXyXx/6G6ZqqOY1fk7ZHZboqk4=
/US FEDERAL GOVERNMENT/[usgovmanual] Postal Regulatory Commission (172),[usgovmanual] Postal Regulatory Commission (172),,202-789-6861,202-789-6800,,http://www.prc.gov,,,,,,,Executive Branch: Independent Agencies and Government Corporations,172,The Postal Regulatory Commission develops and implements a modern system of postal rate regulation.,,,Postal Regulatory Commission,
/US FEDERAL GOVERNMENT/[usgovmanual] Railroad Retirement Board (173),[usgovmanual] Railroad Retirement Board (173),opa@rrb.gov,312-751-7154,312-751-4777,,http://www.rrb.gov,,,,,,,Executive Branch: Independent Agencies and Government Corporations,173,The Railroad Retirement Board administers comprehensive retirement-survivor and unemployment-sickness benefit programs for the Nation's railroad workers and their families.,,,Railroad Retirement Board,
/US FEDERAL GOVERNMENT/[usgovmanual] Securities and Exchange Commission (174),[usgovmanual] Securities and Exchange Commission (174),,,202-551-7500,,http://www.sec.gov,,,,,,,Executive Branch: Independent Agencies and Government Corporations,174,"The Securities and Exchange Commission protects investors, facilitates capital formation, and maintains efficient, fair, and orderly markets.",,,Securities and Exchange Commission,
/US FEDERAL GOVERNMENT/[usgovmanual] Selective Service System (175),[usgovmanual] Selective Service System (175),,,703-605-4100,,http://www.sss.gov,,,,,,,Executive Branch: Independent Agencies and Government Corporations,175,The Selective Service System supplies the Armed Forces with manpower in an emergency and operates an Alternative Service Program for men classified as conscientious objectors.,,,Selective Service System,
/US FEDERAL GOVERNMENT/[usgovmanual] Small Business Administration (176),[usgovmanual] Small Business Administration (176),,202-205-7064,202-205-6600,,http://www.sba.gov,,,,,,,Executive Branch: Independent Agencies and Government Corporations,176,"The Small Business Administration aids, assists, and counsels entrepreneurs and protects their business interests; preserves free and competitive enterprise; and maintains and strengthens the overall economy.",,,Small Business Administration,
/US FEDERAL GOVERNMENT/[usgovmanual] Surface Transportation Board (335),[usgovmanual] Surface Transportation Board (335),rcpa@stb.gov,,202-245-0245,,http://www.stb.gov,,,,,,,Executive Branch: Independent Agencies and Government Corporations,335,The Surface Transportation Board adjudicates and resolves railroad rate and service disputes and reviews proposals for railroad mergers.,,,Surface Transportation Board,
/US FEDERAL GOVERNMENT/[usgovmanual] Social Security Administration (177),[usgovmanual] Social Security Administration (177),,,410-965-1234 / 800-772-1213,800-325-0778 (TTY),http://www.socialsecurity.gov,,,,,,,Executive Branch: Independent Agencies and Government Corporations,177,"The Social Security Administration manages the retirement, survivors, and disability insurance programs that are known as Social Security; it administers the Supplemental Security Income program for the aged, blind, and disabled; and it assigns Social Security numbers to U.S. citizens and maintains earnings records based on those numbers.",,,Social Security Administration,
/US FEDERAL GOVERNMENT/[usgovmanual] Tennessee Valley Authority (178),[usgovmanual] Tennessee Valley Authority (178),,,865-632-2101,,http://www.tva.com,,,,,,,Executive Branch: Independent Agencies and Government Corporations,178,The Tennessee Valley Authority conducts a unified program of resource development to advance economic growth in the Tennessee Valley region.,,,Tennessee Valley Authority,
/US FEDERAL GOVERNMENT/[usgovmanual] United States African Development Foundation (128),[usgovmanual] United States African Development Foundation (128),,202-673-3810,202-233-8800,,http://www.usadf.gov,,,,,,,Executive Branch: Independent Agencies and Government Corporations,128,The United States African Development Foundation provides seed capital and technical assistance to support African-led development that grows community enterprises.,,,United States African Development Foundation,
/US FEDERAL GOVERNMENT/[usgovmanual] Trade and Development Agency (179),[usgovmanual] Trade and Development Agency (179),,703-875-4009,703-875-4357,,http://www.ustda.gov,,,,,,,Executive Branch: Independent Agencies and Government Corporations,179,The Trade and Development Agency advances economic development and U.S. commercial interest in developing and middle-income countries.,,,Trade and Development Agency,https://govmanual.gpo.gov/ReadLibraryItem.ashx?SFN=MFGokbhL0zEJ063AwpQpj9a5gLY8+MzZ&SF=PAmu4nDRyaoCugTKvsXyXx/6G6ZqqOY1fk7ZHZboqk4=
/US FEDERAL GOVERNMENT/[usgovmanual] United States Agency for Global Media (129),[usgovmanual] United States Agency for Global Media (129),,,202-203-4545,,http://www.usagm.gov,,,,,,,Executive Branch: Independent Agencies and Government Corporations,129,"The U.S. Agency for Global Media informs, engages, and connects people around the world in support of freedom and democracy.",,,United States Agency for Global Media,
/US FEDERAL GOVERNMENT/[usgovmanual] United States Agency for International Development (180),[usgovmanual] United States Agency for International Development (180),,,202-712-0000,,http://www.usaid.gov,,,,,,,Executive Branch: Independent Agencies and Government Corporations,180,The United States Agency for International Development seeks to eradicate extreme global poverty and enables resilient and democratic societies to realize their potential.,,,United States Agency for International Development,
/US FEDERAL GOVERNMENT/[usgovmanual] United States Commission on Civil Rights (181),[usgovmanual] United States Commission on Civil Rights (181),,,202-376-8128,800-977-8339 (FedRelay),http://www.usccr.gov,,,,,,,Executive Branch: Independent Agencies and Government Corporations,181,The Commission on Civil Rights informs the development of national civil rights policy and enhances enforcement of Federal civil rights laws.,,,United States Commission on Civil Rights,https://govmanual.gpo.gov/ReadLibraryItem.ashx?SFN=Nw/rc3LbONHbVh/TratLDZjllbVsBruZ&SF=PAmu4nDRyaoCugTKvsXyXx/6G6ZqqOY1fk7ZHZboqk4=
/US FEDERAL GOVERNMENT/[usgovmanual] United States International Trade Commission (182),[usgovmanual] United States International Trade Commission (182),,,202-205-2000,,http://www.usitc.gov,,,,,,,Executive Branch: Independent Agencies and Government Corporations,182,"The United States International Trade Commission provides the President, the U.S. Trade Representative, and the Congress with independent analysis of and information on tariffs, international trade, and the Nation's competitiveness; makes determinations in proceedings involving imports that may harm a domestic industry or violate U.S. intellectual property rights; and maintains the Harmonized Tariff Schedule of the United States.",,,United States International Trade Commission,
/US FEDERAL GOVERNMENT/[usgovmanual] United States Office of Special Counsel (168),[usgovmanual] United States Office of Special Counsel (168),,202-653-5151,202-804-7000,800-872-9855,http://www.osc.gov,,,,,,,Executive Branch: Independent Agencies and Government Corporations,168,"The United States Office of Special Counsel investigates allegations of certain activities prohibited by civil service laws, rules, or regulations and litigates before the Merit Systems Protection Board.",,,United States Office of Special Counsel,
/US FEDERAL GOVERNMENT/[usgovmanual] United States Postal Service (183),[usgovmanual] United States Postal Service (183),,,202-268-2000,,http://about.usps.com,,,,,,,Executive Branch: Independent Agencies and Government Corporations,183,"The United States Postal Service binds the Nation together through the people's personal, educational, literary, and business correspondence by providing prompt, reliable, and efficient services to patrons in all areas and by rendering postal services to all communities.",,,United States Postal Service,
/US FEDERAL GOVERNMENT/[usgovmanual] Legal Services Corporation (185),[usgovmanual] Legal Services Corporation (185),,202-337-6797,202-295-1500,,http://www.lsc.gov,,,,,,,Quasi-Official Agencies,185,The Legal Services Corporation promotes equal access to justice and provides civil legal assistance to low-income persons.,,,Legal Services Corporation,
/US FEDERAL GOVERNMENT/[usgovmanual] Smithsonian Institution (186),[usgovmanual] Smithsonian Institution (186),,,202-633-1000,,http://www.si.edu,,,,,,,Quasi-Official Agencies,186,The Smithsonian Institution increases the fund of human knowledge and diffuses that knowledge among people.,,,Smithsonian Institution,
/US FEDERAL GOVERNMENT/[usgovmanual] State Justice Institute (187),[usgovmanual] State Justice Institute (187),contact@sji.gov,,571-313-8843,,http://www.sji.gov,,,,,,,Quasi-Official Agencies,187,The State Justice Institute supports the Nation's judicial system and the public that it serves.,,,State Justice Institute,
/US FEDERAL GOVERNMENT/[usgovmanual] United States Holocaust Memorial Museum (333),[usgovmanual] United States Holocaust Memorial Museum (333),,,202-488-0400,"TTY, 202-488-0406",http://www.ushmm.org,,,,,,,Quasi-Official Agencies,333,"The United States Holocaust Memorial Museum promotes documentation, study, and interpretation of the Holocaust and maintains a permanent living memorial to its victims.",,,United States Holocaust Memorial Museum,
/US FEDERAL GOVERNMENT/[usgovmanual] United States Institute of Peace (188),[usgovmanual] United States Institute of Peace (188),,202-429-6063,202-457-1700,,http://www.usip.org,,,,,,,Quasi-Official Agencies,188,"The United States Institute of Peace prevents, mitigates, and resolves violent conflicts around the world.",,,United States Institute of Peace,
/US FEDERAL GOVERNMENT/[usgovmanual] African Development Bank (189),[usgovmanual] African Development Bank (189),afdb@afdb.org,,+225 20 26 10 20,,http://www.afdb.org,,,,,,,International Organizations,189,"The African Development Bank reduces poverty in Arica, improves living conditions for Africans, and mobilizes resources for economic and social development throughout the continent.",,,African Development Bank,
/US FEDERAL GOVERNMENT/[usgovmanual] Asian Development Bank (196),[usgovmanual] Asian Development Bank (196),information@adb.org,+632 636-2444,+632 632-4444,,http://www.adb.org,,202 728 1505,202-728-1500,,,,International Organizations,196,The Asian Development Bank stimulates sustainable economic development and social progress in member countries to mitigate poverty and its effects.,,,Asian Development Bank,
/US FEDERAL GOVERNMENT/[usgovmanual] European Bank for Reconstruction and Development (237),[usgovmanual] European Bank for Reconstruction and Development (237),,,+44 20 7338 6000,,http://www.ebrd.com,,,,,,,International Organizations,237,The European Bank for Reconstruction and Development develops open and sustainable market economies in democratic countries.,,,European Bank for Reconstruction and Development,
/US FEDERAL GOVERNMENT/[usgovmanual] Inter-American Defense Board (190),[usgovmanual] Inter-American Defense Board (190),protocol@jid.org,202-319-2791,202-939-6041,,http://iadb.jid.org,,,,,,,International Organizations,190,,,,Inter-American Defense Board,
/US FEDERAL GOVERNMENT/[usgovmanual] Inter-American Development Bank (197),[usgovmanual] Inter-American Development Bank (197),,202-623-3096,202-623-1000,,http://www.iadb.org,,,,,,,International Organizations,197,,,,Inter-American Development Bank,
/US FEDERAL GOVERNMENT/[usgovmanual] Inter-American Investment Corporation (200),[usgovmanual] Inter-American Investment Corporation (200),,,202-623-3901,,http://www.iic.org/en,,,,,,,International Organizations,200,The Inter-American Development Bank promotes development in Latin America and the Caribbean through the private sector.,,,Inter-American Investment Corporation,
/US FEDERAL GOVERNMENT/[usgovmanual] International Monetary Fund (191),[usgovmanual] International Monetary Fund (191),,202-623-4661,202-623-7000,,http://www.imf.org,,,,,,,International Organizations,191,"The International Monetary Fund fosters global monetary cooperation, secures financial stability, facilitates international trade, promotes employment and sustainable economic growth, and reduces poverty worldwide.",,,International Monetary Fund,
/US FEDERAL GOVERNMENT/[usgovmanual] International Organization for Migration (192),[usgovmanual] International Organization for Migration (192),hq@iom.int,,011-41-22-717-9111,,http://www.iom.int,IOMWashington@iom.int,,202-862-1826,,newyork@iom.int,212-681-7000,International Organizations,192,"The International Organization for Migration analyzes and addresses underlying issues of migration; deals with the operational challenges of migration management; promotes economic and social development through migration; and champions the dignity and well-being of migrants, while confronting xenophobic narratives that hurt them.",,,International Organization for Migration,
/US FEDERAL GOVERNMENT/[usgovmanual] Organization of American States (193),[usgovmanual] Organization of American States (193),,202-458-3967,202-370-5000,,http://www.oas.org/en,,,,,,,International Organizations,193,"The Organization of American States seeks an order of peace and justice among its member states, promotes their solidarity and strengthens their collaboration, and defends their sovereignty, territorial integrity, and independence.",,,Organization of American States,
/US FEDERAL GOVERNMENT/[usgovmanual] United Nations (194),[usgovmanual] United Nations (194),,,212-963-1234,,http://www.un.org,unicdc@unic.org,202-331-9191,202-331-8670,http://www.unicwash.org,,,International Organizations,194,"The United Nations supports tolerance and peaceful coexistence among the nations; seeks to maintain peace and security among them; opposes the use of armed force, except in the common interest; and promotes the economic and social advancement of all peoples.",,,United Nations,
/US FEDERAL GOVERNMENT/[usgovmanual] World Bank Group (198),[usgovmanual] World Bank Group (198),,202-477-6391,202-473-1000,,http://www.worldbank.org,,,,,,,International Organizations,198,The World Bank Group promotes shared global prosperity and seeks to end extreme poverty.,,,World Bank Group,
